STARLINK-1193_new
1 15100C 20006BJ  21326.14704875  .00004944  00000-0  33124-3 0  3269
2 15100  53.0525  88.0712 0001216  84.1275 331.0767 15.06397330    10
STARLINK-1193_old
1 25100C 20006BJ  21325.12728287  .00002337  00000-0  15664-3 0  3251
2 25100  53.0523  92.6490 0001250  86.9534 194.9791 15.06390042    14
